{
  "norad_id": 58860,
  "name": "STARLINK-31213",
  "history": [
    {
      "epoch": "2026-04-15T20:00:10.246752Z",
      "apogee_km": 483.5739849575175,
      "perigee_km": 482.5502940459037,
      "latitude_deg": 2.9896050092045867e-05,
      "longitude_deg": -104.92740608572369,
      "height_km": 482.9308556691723,
      "semi_major_axis_km": 6861.19913950171,
      "eccentricity": 7.46e-05,
      "inclination_deg": 43.0021,
      "raan_deg": 39.1051,
      "arg_perigee_deg": 259.6022,
      "mean_anomaly_deg": 100.4746,
      "mean_motion_rev_day": 15.27575644
    },
    {
      "epoch": "2026-04-16T11:41:44.256192Z",
      "apogee_km": 483.60251747736856,
      "perigee_km": 482.5445188154699,
      "latitude_deg": 3.8735606062741965e-06,
      "longitude_deg": 15.342981829271766,
      "height_km": 482.914500220946,
      "semi_major_axis_km": 6861.210518146419,
      "eccentricity": 7.71e-05,
      "inclination_deg": 43.0016,
      "raan_deg": 35.4117,
      "arg_perigee_deg": 262.9787,
      "mean_anomaly_deg": 97.0977,
      "mean_motion_rev_day": 15.27571844
    },
    {
      "epoch": "2026-04-17T11:14:05.312256Z",
      "apogee_km": 483.89990210586166,
      "perigee_km": 482.2573270877283,
      "latitude_deg": 4.652487845105803e-06,
      "longitude_deg": 15.750130706778503,
      "height_km": 482.9201286971146,
      "semi_major_axis_km": 6861.215614596795,
      "eccentricity": 0.0001197,
      "inclination_deg": 43.0044,
      "raan_deg": 29.8733,
      "arg_perigee_deg": 265.4953,
      "mean_anomaly_deg": 94.5762,
      "mean_motion_rev_day": 15.27570142
    },
    {
      "epoch": "2026-04-18T10:46:25.789440Z",
      "apogee_km": 483.51306231172657,
      "perigee_km": 482.58405778689576,
      "latitude_deg": 4.00424846147742e-06,
      "longitude_deg": 16.15569576776454,
      "height_km": 482.3652061036815,
      "semi_major_axis_km": 6861.185560049311,
      "eccentricity": 6.77e-05,
      "inclination_deg": 43.0031,
      "raan_deg": 24.3309,
      "arg_perigee_deg": 351.3958,
      "mean_anomaly_deg": 8.6882,
      "mean_motion_rev_day": 15.27580179
    },
    {
      "epoch": "2026-04-19T10:18:47.132352Z",
      "apogee_km": 483.54305227044733,
      "perigee_km": 482.62145330041403,
      "latitude_deg": -4.3461345241150924e-08,
      "longitude_deg": 16.561738970537828,
      "height_km": 482.39837648552,
      "semi_major_axis_km": 6861.21925278543,
      "eccentricity": 6.716e-05,
      "inclination_deg": 43.0019,
      "raan_deg": 18.7926,
      "arg_perigee_deg": 355.8844,
      "mean_anomaly_deg": 4.2002,
      "mean_motion_rev_day": 15.27568927
    },
    {
      "epoch": "2026-04-20T02:00:21.172896Z",
      "apogee_km": 483.4532081741063,
      "perigee_km": 482.72646702746715,
      "latitude_deg": 2.9041625503140185e-05,
      "longitude_deg": 136.83335353913057,
      "height_km": 482.5642711132105,
      "semi_major_axis_km": 6861.226837600786,
      "eccentricity": 5.296e-05,
      "inclination_deg": 43.0016,
      "raan_deg": 15.1005,
      "arg_perigee_deg": 34.1025,
      "mean_anomaly_deg": 325.9861,
      "mean_motion_rev_day": 15.27566394
    },
    {
      "epoch": "2026-04-20T23:58:32.492352Z",
      "apogee_km": 483.6491042093203,
      "perigee_km": 482.528528808969,
      "latitude_deg": -3.887273678579393e-05,
      "longitude_deg": 161.21474661894,
      "height_km": 482.9225705380151,
      "semi_major_axis_km": 6861.225816509144,
      "eccentricity": 8.166e-05,
      "inclination_deg": 43.0032,
      "raan_deg": 9.9314,
      "arg_perigee_deg": 264.1396,
      "mean_anomaly_deg": 95.9362,
      "mean_motion_rev_day": 15.27566735
    },
    {
      "epoch": "2026-04-22T01:05:01.184640Z",
      "apogee_km": 483.90189086767623,
      "perigee_km": 482.15325446468614,
      "latitude_deg": -3.1867659190625304e-06,
      "longitude_deg": 137.65598305026904,
      "height_km": 482.9922050306883,
      "semi_major_axis_km": 6861.164572666181,
      "eccentricity": 0.00012743,
      "inclination_deg": 43.0014,
      "raan_deg": 4.0233,
      "arg_perigee_deg": 257.5876,
      "mean_anomaly_deg": 102.4833,
      "mean_motion_rev_day": 15.27587188
    },
    {
      "epoch": "2026-04-23T00:37:23.280096Z",
      "apogee_km": 484.17756707595345,
      "perigee_km": 481.93272223006534,
      "latitude_deg": -1.1435280756818076e-05,
      "longitude_deg": 138.05817576704433,
      "height_km": 482.83395463545287,
      "semi_major_axis_km": 6861.192144653009,
      "eccentricity": 0.00016359,
      "inclination_deg": 43.002,
      "raan_deg": 358.4843,
      "arg_perigee_deg": 269.9136,
      "mean_anomaly_deg": 90.1528,
      "mean_motion_rev_day": 15.2757798
    },
    {
      "epoch": "2026-04-24T00:09:43.384896Z",
      "apogee_km": 483.83670148490273,
      "perigee_km": 482.297458961546,
      "latitude_deg": -5.524072719129256e-05,
      "longitude_deg": 138.4688483067268,
      "height_km": 482.92382459452404,
      "semi_major_axis_km": 6861.204080223224,
      "eccentricity": 0.00011217,
      "inclination_deg": 43.0023,
      "raan_deg": 352.9455,
      "arg_perigee_deg": 264.0311,
      "mean_anomaly_deg": 96.0412,
      "mean_motion_rev_day": 15.27573994
    },
    {
      "epoch": "2026-04-25T01:16:13.698048Z",
      "apogee_km": 483.9156055070025,
      "perigee_km": 482.15557751382767,
      "latitude_deg": -3.610917131150283e-05,
      "longitude_deg": 114.90429682921953,
      "height_km": 482.7174325285857,
      "semi_major_axis_km": 6861.172591510414,
      "eccentricity": 0.00012826,
      "inclination_deg": 43.0038,
      "raan_deg": 347.0384,
      "arg_perigee_deg": 276.2102,
      "mean_anomaly_deg": 83.8603,
      "mean_motion_rev_day": 15.2758451
    }
  ]
}